GLOBALSTAR M001         
1 25162U 98008A   24145.12794225 -.00000080  00000+0  13151-3 0  9991
2 25162  52.0060  25.5874 0001947 125.7772  39.8944 12.38184858195622
GLOBALSTAR M004         
1 25163U 98008B   24144.45561424 -.00000038  00000+0  36590-3 0  9995
2 25163  51.9973 163.0985 0003053 145.2287   2.5703 12.63360745212420
GLOBALSTAR M002         
1 25164U 98008C   24145.18466232 -.00000082  00000+0 -11195-3 0  9992
2 25164  51.9983 135.5555 0001085 154.3207 205.7667 11.61503222138930
GLOBALSTAR M003         
1 25165U 98008D   24145.21007112  .00000054  00000+0  15250-2 0  9997
2 25165  51.9840 165.8413 0008054 230.1510 207.2167 12.12004574186146
GLOBALSTAR M014         
1 25306U 98023A   24145.20322723 -.00000075  00000+0  49156-4 0  9996
2 25306  51.9854  66.9095 0001353  20.1629 129.0039 11.65467877145801
GLOBALSTAR M006         
1 25307U 98023B   24145.34760514 -.00000081  00000+0 -99312-4 0  9993
2 25307  51.9925 104.4853 0003506 120.6002  47.8318 11.58163928171880
GLOBALSTAR M015         
1 25308U 98023C   24144.44822410 -.00000039  00000+0  77961-3 0  9995
2 25308  51.9791 187.3374 0012518 104.7732   0.0582 11.48852431149282
GLOBALSTAR M008         
1 25309U 98023D   24144.47259380 -.00000065  00000+0  24525-3 0  9996
2 25309  51.9967 247.9114 0002841  85.0737 354.5277 12.36043606189654
